EPOCH,MEAN_MOTION,ECCENTRICITY,INCLINATION,RA_OF_ASC_NODE,ARG_OF_PERICENTER,MEAN_ANOMALY,NORAD_CAT_ID,SEMIMAJOR_AXIS,PERIOD,APOAPSIS,PERIAPSIS,OBJECT_TYPE,RCS_SIZE,COUNTRY_CODE,LAUNCH_DATE
1635742800.0,15.73193664,0.0007316,53.043,181.7537,294.5019,7.9836,48032,6727.913,91.534,354.7,344.856,PAYLOAD,LARGE,US,2021.0
1635689220.0,15.06397697,0.000148,53.054,269.6832,70.5614,289.5535,48033,6925.356,95.592,548.246,546.196,PAYLOAD,LARGE,US,2021.0
1635735797.0,15.06403999,0.0001624,53.0558,267.2555,68.1863,291.9299,48034,6925.336,95.592,548.326,546.077,PAYLOAD,LARGE,US,2021.0
1635771601.0,15.73176245,0.0006511,53.0433,180.0976,296.1389,97.2897,48035,6727.963,91.535,354.208,345.447,PAYLOAD,MEDIUM,US,2021.0
1635736434.0,15.06415018,0.0001527,53.0539,267.2251,69.4391,290.6762,48036,6925.303,95.591,548.225,546.11,PAYLOAD,LARGE,US,2021.0
1635687289.0,15.06939298,0.001539,97.5449,204.2384,192.3192,167.7662,48041,6923.696,95.558,556.217,534.906,PAYLOAD,SMALL,THAI,2021.0
1635696075.0,13.13474213,0.0002045,87.8848,295.9232,100.0237,260.1122,48042,7587.886,109.633,1211.303,1208.199,PAYLOAD,LARGE,UK,2021.0
1635670722.0,13.1346702,0.000225,87.8814,295.9586,91.6956,268.443,48043,7587.914,109.634,1211.486,1208.072,PAYLOAD,MEDIUM,UK,2021.0
1635695108.0,13.13469669,0.0001751,87.8958,296.0831,83.8909,276.242,48044,7587.904,109.633,1211.097,1208.44,PAYLOAD,LARGE,UK,2021.0
1635694914.0,13.13478186,0.0001998,87.8802,295.9228,73.6497,286.4851,48045,7587.871,109.633,1211.252,1208.22,PAYLOAD,LARGE,UK,2021.0
1635724920.0,13.13478294,0.0001643,87.881,295.853,102.2688,257.8625,48046,7587.87,109.633,1210.982,1208.489,PAYLOAD,MEDIUM,UK,2021.0
1635696270.0,13.13440874,0.0001663,87.8805,295.9443,80.4418,279.6899,48047,7588.015,109.636,1211.141,1208.618,PAYLOAD,LARGE,UK,2021.0
1635696462.0,13.13472632,0.0002016,87.8833,295.9215,72.5993,287.5357,48048,7587.892,109.633,1211.287,1208.228,PAYLOAD,LARGE,UK,2021.0
1635693370.0,13.1345849,0.0002018,87.8829,295.9921,83.4731,276.6628,48049,7587.947,109.634,1211.343,1208.28,PAYLOAD,LARGE,UK,2021.0
1635724148.0,13.13477075,0.0001817,87.8828,295.8517,88.5355,271.5982,48050,7587.875,109.633,1211.119,1208.361,PAYLOAD,LARGE,UK,2021.0
1635696852.0,13.13422014,0.0001708,87.8808,295.9563,98.7734,261.3588,48051,7588.087,109.637,1211.248,1208.656,PAYLOAD,MEDIUM,UK,2021.0
1635697627.0,13.13471187,0.0001763,87.8791,295.876,88.7195,271.4136,48052,7587.898,109.633,1211.101,1208.425,PAYLOAD,MEDIUM,UK,2021.0
1635721629.0,13.13479603,0.0002006,87.8791,295.8928,88.4887,271.6472,48053,7587.865,109.632,1211.253,1208.208,PAYLOAD,LARGE,UK,2021.0
1635698786.0,13.13469241,0.0001838,87.8803,295.9134,99.9925,260.1412,48054,7587.905,109.633,1211.165,1208.376,PAYLOAD,MEDIUM,UK,2021.0
1635694142.0,13.13474195,0.0001879,87.8813,295.9259,73.6658,286.4677,48055,7587.886,109.633,1211.177,1208.325,PAYLOAD,LARGE,UK,2021.0
1635697433.0,13.13470822,0.0001473,87.8839,295.9187,87.3478,272.782,48056,7587.899,109.633,1210.882,1208.647,PAYLOAD,LARGE,UK,2021.0
1635692792.0,13.13455704,0.0002022,87.8781,295.9491,91.0437,269.0924,48057,7587.957,109.634,1211.357,1208.288,PAYLOAD,LARGE,UK,2021.0
1635694532.0,13.13441843,0.0001143,87.8741,295.9025,54.8238,305.2998,48058,7588.011,109.636,1210.743,1209.009,PAYLOAD,LARGE,UK,2021.0
1635698014.0,13.13449423,0.0001743,87.8793,295.9006,53.7009,306.4281,48059,7587.982,109.635,1211.169,1208.524,PAYLOAD,LARGE,UK,2021.0
1635745636.0,13.134678,0.0002324,87.8776,295.8065,124.0387,236.0962,48060,7587.911,109.633,1211.539,1208.012,PAYLOAD,LARGE,UK,2021.0
1635698206.0,13.13470696,0.0002145,87.8798,295.9142,69.4113,290.7246,48061,7587.9,109.633,1211.392,1208.137,PAYLOAD,LARGE,UK,2021.0
1635696949.0,13.13459469,0.0001957,87.8781,295.8393,70.3197,289.8143,48062,7587.943,109.634,1211.293,1208.323,PAYLOAD,MEDIUM,UK,2021.0
1635695690.0,13.13435173,0.0002296,87.8788,295.9217,94.7825,265.3567,48063,7588.037,109.636,1211.644,1208.159,PAYLOAD,LARGE,UK,2021.0
1635698398.0,13.13475875,0.0001834,87.8839,295.9048,72.6371,287.4959,48064,7587.88,109.633,1211.136,1208.353,PAYLOAD,MEDIUM,UK,2021.0
1635693563.0,13.1348307,0.0001995,87.8808,295.9732,79.1158,281.0196,48065,7587.852,109.632,1211.231,1208.203,PAYLOAD,LARGE,UK,2021.0
1635693757.0,13.13469546,0.0002335,87.8813,295.909,92.5226,267.6171,48066,7587.904,109.633,1211.541,1207.997,PAYLOAD,LARGE,UK,2021.0
1635694338.0,13.13433981,0.0003059,87.8843,295.9123,102.6339,257.5132,48067,7588.041,109.636,1212.227,1207.585,PAYLOAD,LARGE,UK,2021.0
1635739254.0,13.13534837,0.0001755,87.8837,295.8099,80.7641,279.3687,48068,7587.653,109.628,1210.849,1208.186,PAYLOAD,MEDIUM,UK,2021.0
1635699174.0,13.13474003,0.0002412,87.8789,295.9132,78.9186,281.2215,48069,7587.887,109.633,1211.582,1207.922,PAYLOAD,LARGE,UK,2021.0
1635695495.0,13.13475155,0.0001718,87.8777,295.9197,78.593,281.5392,48070,7587.883,109.633,1211.051,1208.444,PAYLOAD,MEDIUM,UK,2021.0
1635704973.0,13.15246814,0.0002003,88.3009,295.1033,92.1693,267.9667,48071,7581.067,109.485,1204.451,1201.414,PAYLOAD,LARGE,UK,2021.0
1635698979.0,13.1343714,0.0001333,87.8819,295.9157,57.0393,303.0864,48072,7588.029,109.636,1210.905,1208.882,PAYLOAD,MEDIUM,UK,2021.0
1635694723.0,13.1344202,0.0002436,87.8823,295.9894,100.1861,259.9543,48073,7588.01,109.636,1211.724,1208.027,PAYLOAD,MEDIUM,UK,2021.0
1635695884.0,13.13428026,0.0002662,87.8762,295.9159,72.4313,287.7106,48074,7588.064,109.637,1211.949,1207.909,PAYLOAD,LARGE,UK,2021.0
1635703823.0,13.13467673,0.0002031,87.8766,295.9187,80.4728,279.6631,48075,7587.911,109.633,1211.317,1208.235,PAYLOAD,MEDIUM,UK,2021.0
1635713697.0,13.13464005,0.0001252,87.8806,295.8738,95.3856,264.7416,48076,7587.925,109.634,1210.74,1208.84,PAYLOAD,LARGE,UK,2021.0
1635696659.0,13.13393158,0.0001394,87.8791,295.9167,88.7706,271.3583,48077,7588.198,109.64,1211.121,1209.006,PAYLOAD,LARGE,UK,2021.0
1635735308.0,14.80295033,0.0001277,97.8771,294.83,40.434,319.6968,48079,7006.53,97.278,629.29,627.5,PAYLOAD,LARGE,PRC,2021.0
1635697558.0,15.01526678,0.0053926,97.8498,300.4689,9.972,350.2561,48080,6940.325,95.902,599.616,524.764,ROCKET BODY,LARGE,PRC,2021.0
1635720237.0,15.07213544,0.001524,97.5459,204.6567,189.4874,170.6068,48082,6922.856,95.541,555.272,534.171,PAYLOAD,SMALL,IT,2021.0
1635762358.0,15.06157774,0.00204,97.5419,204.7457,203.966,242.0987,48083,6926.091,95.608,562.085,533.827,TBA,SMALL,TBD,2021.0
1635763623.0,15.06155399,0.0020741,97.5422,204.7669,202.8518,331.6667,48084,6926.098,95.608,562.329,533.598,TBA,SMALL,TBD,2021.0
1635721473.0,15.06178165,0.0020798,97.5433,204.2932,204.7823,213.3325,48085,6926.029,95.606,562.298,533.489,TBA,SMALL,TBD,2021.0
1635658823.0,12.98300832,0.0266782,101.539,303.516,87.4577,275.703,48086,7646.892,110.914,1472.762,1064.752,DEBRIS,SMALL,US,1973.0
1635709809.0,13.41726658,0.0058188,99.8305,170.1142,314.0564,45.5782,48087,7480.991,107.324,1146.387,1059.326,DEBRIS,SMALL,US,1975.0
1635548076.0,12.19223487,0.0115763,102.3134,12.5546,104.9213,14.9627,48088,7974.062,118.108,1688.238,1503.617,DEBRIS,SMALL,US,1976.0
1635739287.0,15.27235275,9.46e-05,53.0425,32.6368,18.5777,341.5255,48092,6862.219,94.288,484.733,483.434,PAYLOAD,LARGE,US,2021.0
1635709045.0,15.06396767,0.0001814,53.0558,98.6403,82.9583,277.1612,48093,6925.358,95.592,548.48,545.967,PAYLOAD,LARGE,US,2021.0
1635700767.0,15.06399827,0.0001773,53.0564,109.074,88.5549,271.5643,48094,6925.349,95.592,548.442,545.986,PAYLOAD,LARGE,US,2021.0
1635707137.0,15.06392264,0.0001721,53.057,108.7499,90.9419,269.1767,48095,6925.372,95.593,548.429,546.045,PAYLOAD,LARGE,US,2021.0
1635716371.0,15.06405079,0.0001599,53.057,108.2707,89.5652,270.552,48096,6925.333,95.592,548.305,546.091,PAYLOAD,LARGE,US,2021.0
1635731818.0,15.06397999,0.0001626,53.0563,87.4567,76.4794,283.6376,48097,6925.355,95.592,548.346,546.094,PAYLOAD,LARGE,US,2021.0
1635706898.0,15.06393729,0.000167,53.0562,98.7546,87.681,272.4371,48098,6925.368,95.593,548.389,546.076,PAYLOAD,LARGE,US,2021.0
1635705863.0,15.06397866,0.0001899,53.0552,108.7975,86.8921,273.2285,48099,6925.355,95.592,548.535,545.905,PAYLOAD,LARGE,US,2021.0
1635641596.0,15.06385508,0.0001633,53.0566,91.9655,82.9514,277.1661,48100,6925.393,95.593,548.389,546.127,PAYLOAD,LARGE,US,2021.0
1635706816.0,15.06399368,0.000193,53.0568,98.7641,78.1876,281.9329,48101,6925.35,95.592,548.552,545.879,PAYLOAD,LARGE,US,2021.0
1635710479.0,15.06409933,0.0001152,53.0516,88.5734,83.2422,276.8698,48102,6925.318,95.592,547.981,546.385,PAYLOAD,LARGE,US,2021.0
1635705385.0,15.06404286,0.0001407,53.051,88.8407,72.2937,287.8205,48103,6925.335,95.592,548.175,546.226,PAYLOAD,MEDIUM,US,2021.0
1635758052.0,15.06391659,0.0002249,53.0536,91.0971,82.89,277.2345,48104,6925.374,95.593,548.797,545.682,PAYLOAD,LARGE,US,2021.0
1635767240.0,15.06554503,0.0002186,53.0498,35.6041,104.8229,255.3002,48105,6924.875,95.582,548.254,545.226,PAYLOAD,LARGE,US,2021.0
1635731417.0,15.06402394,0.0001695,53.054,87.4703,80.1544,279.9636,48106,6925.341,95.592,548.38,546.032,PAYLOAD,LARGE,US,2021.0
1635692646.0,15.064039,0.0001571,53.0549,89.4833,86.6028,273.5141,48107,6925.337,95.592,548.29,546.114,PAYLOAD,LARGE,US,2021.0
1635759125.0,15.06402047,0.0001643,53.0538,96.0474,82.4495,277.6681,48108,6925.342,95.592,548.345,546.069,PAYLOAD,LARGE,US,2021.0
1635760320.0,15.06405213,0.0001727,53.0552,105.9675,90.5022,269.6165,48109,6925.333,95.592,548.394,546.002,PAYLOAD,LARGE,US,2021.0
1635706579.0,15.06412398,0.0001708,53.0545,98.762,76.896,283.222,48110,6925.311,95.591,548.358,545.993,PAYLOAD,LARGE,US,2021.0
1635757770.0,15.06400456,0.0001163,53.0586,96.1119,89.8367,270.2755,48111,6925.347,95.592,548.018,546.407,PAYLOAD,LARGE,US,2021.0
1635715454.0,15.06401135,0.0001568,53.0576,113.3157,83.531,276.5857,48112,6925.345,95.592,548.296,546.124,PAYLOAD,LARGE,US,2021.0
1635734205.0,15.06401059,0.0001801,53.0556,107.3324,72.3597,287.7588,48113,6925.345,95.592,548.458,545.963,PAYLOAD,LARGE,US,2021.0
1635696426.0,15.06400625,0.0001804,53.0559,104.2991,79.536,280.5832,48114,6925.347,95.592,548.461,545.962,PAYLOAD,LARGE,US,2021.0
